CCSDS_OMM_VERS = 2.0
CREATION_DATE  = 
ORIGINATOR     = 

OBJECT_NAME    = ELECTRON KICK STAGE R/B
OBJECT_ID      = 2026-019C
CENTER_NAME    = EARTH
REF_FRAME      = TEME
TIME_SYSTEM    = UTC
MEAN_ELEMENT_THEORY = SGP/SGP4

EPOCH          = 2026-02-15T07:59:24.502272
MEAN_MOTION    = 15.64232862
ECCENTRICITY   = .0175223
INCLINATION    = 97.4044
RA_OF_ASC_NODE = 171.9647
ARG_OF_PERICENTER = 203.5853
MEAN_ANOMALY   = 155.7303

EPHEMERIS_TYPE = 0
CLASSIFICATION_TYPE = U
NORAD_CAT_ID   = 67616
ELEMENT_SET_NO = 999
REV_AT_EPOCH   = 253
BSTAR          = .21756E-2
MEAN_MOTION_DOT = .472338E-2
MEAN_MOTION_DDOT = .65961E-4

CCSDS_OMM_VERS = 2.0
CREATION_DATE  = 
ORIGINATOR     = 

OBJECT_NAME    = STARLINK-36548
OBJECT_ID      = 2026-020A
CENTER_NAME    = EARTH
REF_FRAME      = TEME
TIME_SYSTEM    = UTC
MEAN_ELEMENT_THEORY = SGP/SGP4

EPOCH          = 2026-02-15T12:08:13.063200
MEAN_MOTION    = 15.76569345
ECCENTRICITY   = .0002598
INCLINATION    = 42.9974
RA_OF_ASC_NODE = 277.1083
ARG_OF_PERICENTER = 238.3032
MEAN_ANOMALY   = 121.7585

EPHEMERIS_TYPE = 0
CLASSIFICATION_TYPE = U
NORAD_CAT_ID   = 67617
ELEMENT_SET_NO = 999
REV_AT_EPOCH   = 258
BSTAR          = .26007E-2
MEAN_MOTION_DOT = .450313E-2
MEAN_MOTION_DDOT = 0

CCSDS_OMM_VERS = 2.0
CREATION_DATE  = 
ORIGINATOR     = 

OBJECT_NAME    = STARLINK-36601
OBJECT_ID      = 2026-020B
CENTER_NAME    = EARTH
REF_FRAME      = TEME
TIME_SYSTEM    = UTC
MEAN_ELEMENT_THEORY = SGP/SGP4

EPOCH          = 2026-02-15T02:33:27.439776
MEAN_MOTION    = 15.82082313
ECCENTRICITY   = .00019061
INCLINATION    = 42.9970
RA_OF_ASC_NODE = 279.2652
ARG_OF_PERICENTER = 280.9946
MEAN_ANOMALY   = 79.0711

EPHEMERIS_TYPE = 0
CLASSIFICATION_TYPE = U
NORAD_CAT_ID   = 67618
ELEMENT_SET_NO = 999
REV_AT_EPOCH   = 252
BSTAR          = .13700928E-2
MEAN_MOTION_DOT = .299077E-2
MEAN_MOTION_DDOT = 0

CCSDS_OMM_VERS = 2.0
CREATION_DATE  = 
ORIGINATOR     = 

OBJECT_NAME    = STARLINK-36119
OBJECT_ID      = 2026-020C
CENTER_NAME    = EARTH
REF_FRAME      = TEME
TIME_SYSTEM    = UTC
MEAN_ELEMENT_THEORY = SGP/SGP4

EPOCH          = 2026-02-15T02:57:39.134304
MEAN_MOTION    = 15.76376307
ECCENTRICITY   = .00019061
INCLINATION    = 42.9978
RA_OF_ASC_NODE = 279.4015
ARG_OF_PERICENTER = 268.1651
MEAN_ANOMALY   = 91.9000

EPHEMERIS_TYPE = 0
CLASSIFICATION_TYPE = U
NORAD_CAT_ID   = 67619
ELEMENT_SET_NO = 999
REV_AT_EPOCH   = 252
BSTAR          = .9445298E-3
MEAN_MOTION_DOT = .156258E-2
MEAN_MOTION_DDOT = 0

CCSDS_OMM_VERS = 2.0
CREATION_DATE  = 
ORIGINATOR     = 

OBJECT_NAME    = STARLINK-36607
OBJECT_ID      = 2026-020D
CENTER_NAME    = EARTH
REF_FRAME      = TEME
TIME_SYSTEM    = UTC
MEAN_ELEMENT_THEORY = SGP/SGP4

EPOCH          = 2026-02-15T00:59:59.487072
MEAN_MOTION    = 15.82056882
ECCENTRICITY   = .00017795
INCLINATION    = 42.9962
RA_OF_ASC_NODE = 279.6397
ARG_OF_PERICENTER = 271.8662
MEAN_ANOMALY   = 88.2006

EPHEMERIS_TYPE = 0
CLASSIFICATION_TYPE = U
NORAD_CAT_ID   = 67620
ELEMENT_SET_NO = 999
REV_AT_EPOCH   = 251
BSTAR          = .10481132E-2
MEAN_MOTION_DOT = .226465E-2
MEAN_MOTION_DDOT = 0

CCSDS_OMM_VERS = 2.0
CREATION_DATE  = 
ORIGINATOR     = 

OBJECT_NAME    = STARLINK-36615
OBJECT_ID      = 2026-020E
CENTER_NAME    = EARTH
REF_FRAME      = TEME
TIME_SYSTEM    = UTC
MEAN_ELEMENT_THEORY = SGP/SGP4

EPOCH          = 2026-02-15T01:00:55.788768
MEAN_MOTION    = 15.82053222
ECCENTRICITY   = .00024626
INCLINATION    = 42.9973
RA_OF_ASC_NODE = 279.6434
ARG_OF_PERICENTER = 246.1568
MEAN_ANOMALY   = 113.9046

EPHEMERIS_TYPE = 0
CLASSIFICATION_TYPE = U
NORAD_CAT_ID   = 67621
ELEMENT_SET_NO = 999
REV_AT_EPOCH   = 251
BSTAR          = .12161269E-2
MEAN_MOTION_DOT = .263971E-2
MEAN_MOTION_DDOT = 0

CCSDS_OMM_VERS = 2.0
CREATION_DATE  = 
ORIGINATOR     = 

OBJECT_NAME    = STARLINK-36614
OBJECT_ID      = 2026-020F
CENTER_NAME    = EARTH
REF_FRAME      = TEME
TIME_SYSTEM    = UTC
MEAN_ELEMENT_THEORY = SGP/SGP4

EPOCH          = 2026-02-15T02:51:20.624544
MEAN_MOTION    = 15.76420635
ECCENTRICITY   = .00021542
INCLINATION    = 42.9978
RA_OF_ASC_NODE = 279.3659
ARG_OF_PERICENTER = 266.1785
MEAN_ANOMALY   = 93.8838

EPHEMERIS_TYPE = 0
CLASSIFICATION_TYPE = U
NORAD_CAT_ID   = 67622
ELEMENT_SET_NO = 999
REV_AT_EPOCH   = 252
BSTAR          = .13923534E-2
MEAN_MOTION_DOT = .233154E-2
MEAN_MOTION_DDOT = 0

CCSDS_OMM_VERS = 2.0
CREATION_DATE  = 
ORIGINATOR     = 

OBJECT_NAME    = STARLINK-36600
OBJECT_ID      = 2026-020G
CENTER_NAME    = EARTH
REF_FRAME      = TEME
TIME_SYSTEM    = UTC
MEAN_ELEMENT_THEORY = SGP/SGP4

EPOCH          = 2026-02-15T02:54:30.021984
MEAN_MOTION    = 15.76374595
ECCENTRICITY   = .00018295
INCLINATION    = 42.9978
RA_OF_ASC_NODE = 279.3835
ARG_OF_PERICENTER = 276.7457
MEAN_ANOMALY   = 83.3204

EPHEMERIS_TYPE = 0
CLASSIFICATION_TYPE = U
NORAD_CAT_ID   = 67623
ELEMENT_SET_NO = 999
REV_AT_EPOCH   = 252
BSTAR          = .7468322E-3
MEAN_MOTION_DOT = .122952E-2
MEAN_MOTION_DDOT = 0

CCSDS_OMM_VERS = 2.0
CREATION_DATE  = 
ORIGINATOR     = 

OBJECT_NAME    = STARLINK-36439
OBJECT_ID      = 2026-020H
CENTER_NAME    = EARTH
REF_FRAME      = TEME
TIME_SYSTEM    = UTC
MEAN_ELEMENT_THEORY = SGP/SGP4

EPOCH          = 2026-02-15T12:00:01.999296
MEAN_MOTION    = 15.76397793
ECCENTRICITY   = .0001959
INCLINATION    = 42.9984
RA_OF_ASC_NODE = 276.9246
ARG_OF_PERICENTER = 286.5642
MEAN_ANOMALY   = 128.3104

EPHEMERIS_TYPE = 0
CLASSIFICATION_TYPE = U
NORAD_CAT_ID   = 67624
ELEMENT_SET_NO = 999
REV_AT_EPOCH   = 382
BSTAR          = -.64995E-3
MEAN_MOTION_DOT = -.105177E-2
MEAN_MOTION_DDOT = 0

CCSDS_OMM_VERS = 2.0
CREATION_DATE  = 
ORIGINATOR     = 

OBJECT_NAME    = STARLINK-36438
OBJECT_ID      = 2026-020J
CENTER_NAME    = EARTH
REF_FRAME      = TEME
TIME_SYSTEM    = UTC
MEAN_ELEMENT_THEORY = SGP/SGP4

EPOCH          = 2026-02-15T02:48:11.507040
MEAN_MOTION    = 15.76404530
ECCENTRICITY   = .00020513
INCLINATION    = 42.9977
RA_OF_ASC_NODE = 279.3483
ARG_OF_PERICENTER = 277.7797
MEAN_ANOMALY   = 82.2840

EPHEMERIS_TYPE = 0
CLASSIFICATION_TYPE = U
NORAD_CAT_ID   = 67625
ELEMENT_SET_NO = 999
REV_AT_EPOCH   = 252
BSTAR          = .11628955E-2
MEAN_MOTION_DOT = .193596E-2
MEAN_MOTION_DDOT = 0

CCSDS_OMM_VERS = 2.0
CREATION_DATE  = 
ORIGINATOR     = 

OBJECT_NAME    = STARLINK-36436
OBJECT_ID      = 2026-020K
CENTER_NAME    = EARTH
REF_FRAME      = TEME
TIME_SYSTEM    = UTC
MEAN_ELEMENT_THEORY = SGP/SGP4

EPOCH          = 2026-02-15T02:25:13.578240
MEAN_MOTION    = 15.82072337
ECCENTRICITY   = .00020906
INCLINATION    = 42.9979
RA_OF_ASC_NODE = 279.2175
ARG_OF_PERICENTER = 275.3917
MEAN_ANOMALY   = 84.6716

EPHEMERIS_TYPE = 0
CLASSIFICATION_TYPE = U
NORAD_CAT_ID   = 67626
ELEMENT_SET_NO = 999
REV_AT_EPOCH   = 252
BSTAR          = .14283362E-2
MEAN_MOTION_DOT = .312146E-2
MEAN_MOTION_DDOT = 0

CCSDS_OMM_VERS = 2.0
CREATION_DATE  = 
ORIGINATOR     = 

OBJECT_NAME    = STARLINK-36502
OBJECT_ID      = 2026-020L
CENTER_NAME    = EARTH
REF_FRAME      = TEME
TIME_SYSTEM    = UTC
MEAN_ELEMENT_THEORY = SGP/SGP4

EPOCH          = 2026-02-15T02:26:16.607040
MEAN_MOTION    = 15.82028766
ECCENTRICITY   = .00015236
INCLINATION    = 42.9986
RA_OF_ASC_NODE = 279.2238
ARG_OF_PERICENTER = 271.7597
MEAN_ANOMALY   = 88.3100

EPHEMERIS_TYPE = 0
CLASSIFICATION_TYPE = U
NORAD_CAT_ID   = 67627
ELEMENT_SET_NO = 999
REV_AT_EPOCH   = 252
BSTAR          = .18938599E-2
MEAN_MOTION_DOT = .418389E-2
MEAN_MOTION_DDOT = 0

