ELECTRON KICK STAGE R/B 
1 67616U 26019C   26046.33292248  .00472338  65961-4  21756-2 0  9996
2 67616  97.4044 171.9647 0175223 203.5853 155.7303 15.64232862  2530
STARLINK-36548          
1 67617U 26020A   26046.50570675  .00450313  00000+0  26007-2 0  9992
2 67617  42.9974 277.1083 0002598 238.3032 121.7585 15.76569345  2582
STARLINK-36601          
1 67618U 26020B   26046.10656759  .00299077  00000+0  13701-2 0  9992
2 67618  42.9970 279.2652 0001906 280.9946  79.0711 15.82082313  2525
STARLINK-36119          
1 67619U 26020C   26046.12336961  .00156258  00000+0  94453-3 0  9992
2 67619  42.9978 279.4015 0001906 268.1651  91.9000 15.76376307  2526
STARLINK-36607          
1 67620U 26020D   26046.04166073  .00226465  00000+0  10481-2 0  9996
2 67620  42.9962 279.6397 0001779 271.8662  88.2006 15.82056882  2511
STARLINK-36615          
1 67621U 26020E   26046.04231237  .00263971  00000+0  12161-2 0  9992
2 67621  42.9973 279.6434 0002462 246.1568 113.9046 15.82053222  2511
STARLINK-36614          
1 67622U 26020F   26046.11898871  .00233154  00000+0  13924-2 0  9992
2 67622  42.9978 279.3659 0002154 266.1785  93.8838 15.76420635  2529
STARLINK-36600          
1 67623U 26020G   26046.12118081  .00122952  00000+0  74683-3 0  9995
2 67623  42.9978 279.3835 0001829 276.7457  83.3204 15.76374595  2521
STARLINK-36439          
1 67624U 26020H   26046.50002314 -.00105177  00000+0 -64995-3 0  9996
2 67624  42.9984 276.9246 0001959 286.5642 128.3104 15.76397793  3825
STARLINK-36438          
1 67625U 26020J   26046.11679985  .00193596  00000+0  11629-2 0  9993
2 67625  42.9977 279.3483 0002051 277.7797  82.2840 15.76404530  2524
STARLINK-36436          
1 67626U 26020K   26046.10085160  .00312146  00000+0  14283-2 0  9992
2 67626  42.9979 279.2175 0002090 275.3917  84.6716 15.82072337  2526
STARLINK-36502          
1 67627U 26020L   26046.10158110  .00418389  00000+0  18939-2 0  9997
2 67627  42.9986 279.2238 0001523 271.7597  88.3100 15.82028766  2524
